OBJECT_NAME,OBJECT_ID,EPOCH,MEAN_MOTION,ECCENTRICITY,INCLINATION,RA_OF_ASC_NODE,ARG_OF_PERICENTER,MEAN_ANOMALY,EPHEMERIS_TYPE,CLASSIFICATION_TYPE,NORAD_CAT_ID,ELEMENT_SET_NO,REV_AT_EPOCH,BSTAR,MEAN_MOTION_DOT,MEAN_MOTION_DDOT
GSAT0225 (GALILEO 29),2024-079A,2026-06-30T00:23:18.650112,1.70474129,.00009954,55.1261,100.7218,297.2316,241.8937,0,U,59598,999,1353,0,-.25E-6,0
GSAT0227 (GALILEO 30),2024-079C,2026-06-29T07:42:27.092160,1.70474124,.00023407,55.1217,100.7395,56.5213,303.4857,0,U,59600,999,1357,0,-.29E-6,0
GSAT0232 (GALILEO 32),2024-167A,2026-06-30T03:18:41.814144,1.70474459,.00062722,55.1823,220.9584,229.9139,127.0090,0,U,61182,999,1109,0,.74E-6,0
GSAT0226 (GALILEO 31),2024-167B,2026-06-29T09:45:13.487904,1.70474415,.00030044,55.1811,220.9855,232.0216,127.2488,0,U,61183,999,1105,0,.72E-6,0
BEIDOU-3 M25 (C47),2024-168B,2026-06-29T21:24:08.878752,1.86230387,.00032102,54.4613,301.8014,296.8564,118.8894,0,U,61186,999,1202,0,-.75E-6,0
BEIDOU-3 M27 (C49),2024-168C,2026-06-30T16:27:49.735584,1.86230443,.00012433,54.4560,301.7567,46.5728,316.6899,0,U,61187,999,951,0,-.7E-6,0
GPS BIII-7  (PRN 01),2024-242A,2026-06-29T19:34:38.856864,2.00572141,.00176262,54.8437,333.6698,4.4449,3.3802,0,U,62339,999,1151,0,-.94E-6,0
QZS-6 (QZSS/PRN 200),2025-023A,2026-07-01T00:46:19.902720,1.00272288,.0002107,0.0476,283.4198,189.6018,268.1860,0,U,62876,999,508,0,-.223E-5,0
COSMOS 2584 (704K),2025-042A,2026-06-25T14:05:06.281664,2.13103987,.00062611,65.0897,72.5163,227.4073,132.5759,0,U,63130,999,1022,0,-.66E-6,0
GPS BIII-8  (PRN 21),2025-116A,2026-06-30T19:15:22.806720,2.00575212,.00081845,55.2432,30.5829,343.8282,199.4234,0,U,64202,999,814,0,-.66E-6,0
COSMOS 2596 (708K),2025-206B,2026-06-27T20:03:44.455680,2.13101038,.00110618,64.6279,314.6147,310.3600,91.2409,0,U,65590,999,614,0,-.8E-6,0
GSAT0233 (GALILEO 33),2025-302A,2026-06-30T01:40:40.052064,1.70474266,.00009363,54.3421,101.7645,196.3354,306.6459,0,U,67160,999,334,0,-.24E-6,0
GSAT0234 (GALILEO 34),2025-302C,2026-07-01T00:21:22.296096,1.70474253,.0002472,54.3448,101.7366,311.6346,231.3794,0,U,67162,999,341,0,-.19E-6,0
GPS BIII-9  (PRN 20),2026-017A,2026-06-28T03:58:34.663008,2.00570961,.00208945,55.0953,88.3146,258.1003,101.6754,0,U,67588,999,43183,0,-.55E-6,0
GPS BIII-10 (PRN 13),2026-087A,2026-06-30T11:27:33.304320,2.00571590,.00206086,54.9627,207.2622,106.5563,328.1341,0,U,68791,999,110,0,.73E-6,0
